{
  "type": "FeatureCollection",
  "features": [
    {
      "type": "Feature",
      "properties": { "name": "Karnataka" },
      "geometry": {
        "type": "Polygon",
        "coordinates": [[
          [74.05, 14.87],
          [74.05, 15.20],
          [74.40, 16.10],
          [74.62, 16.52],
          [74.87, 16.90],
          [75.20, 17.22],
          [75.55, 17.62],
          [75.90, 17.95],
          [76.40, 18.05],
          [76.82, 18.00],
          [77.20, 17.82],
          [77.52, 17.60],
          [77.72, 17.28],
          [77.95, 16.92],
          [78.15, 16.50],
          [78.22, 16.05],
          [78.18, 15.58],
          [77.95, 15.18],
          [77.55, 14.68],
          [77.18, 14.18],
          [76.78, 13.68],
          [76.38, 13.18],
          [75.92, 12.68],
          [75.50, 12.22],
          [75.08, 11.98],
          [74.75, 12.02],
          [74.45, 12.25],
          [74.28, 12.55],
          [74.10, 12.98],
          [74.05, 13.52],
          [74.05, 14.10],
          [74.05, 14.87]
        ]]
      }
    }
  ]
}
